TERRESTAR-1             
1 35496U 09035A   25330.33100299 -.00000038  00000+0  00000+0 0  9994
2 35496   5.0115  48.8077 0002741 192.3471 192.5151  1.00270796 60109
ASIASAT 5               
1 35696U 09042A   25330.65115289 -.00000288  00000+0  00000+0 0  9991
2 35696   0.0317 280.8201 0001467 314.9363 165.0080  1.00272776 59679
JCSAT-12 (JCSAT-RA)     
1 35755U 09044A   25330.50947425 -.00000308  00000+0  00000+0 0  9991
2 35755   0.0114 303.5219 0001730 317.4271 120.2293  1.00272675 59577
OPTUS D3                
1 35756U 09044B   25330.61263578 -.00000127  00000+0  00000+0 0  9993
2 35756   0.7693 270.3398 0000555  46.1918 125.9582  1.00268198 59606
NIMIQ 5                 
1 35873U 09050A   25330.46780872 -.00000238  00000+0  00000+0 0  9997
2 35873   0.0173 308.5175 0002859 301.3151 271.5502  1.00271554 59311
AMAZONAS 2              
1 35942U 09054A   25330.42694779 -.00000263  00000+0  00000+0 0  9992
2 35942   1.2869  85.8073 0003414 160.6400 272.1043  1.00272207 59151
COMSATBW-1              
1 35943U 09054B   25330.50047992  .00000044  00000+0  00000+0 0  9997
2 35943   0.0220 278.9689 0002696 340.7148  49.2111  1.00270295 59265
NSS-12                  
1 36032U 09058A   25330.45026125  .00000091  00000+0  00000+0 0  9992
2 36032   0.0948  75.2442 0004261 172.6546  36.8519  1.00270878 58889
THOR 6                  
1 36033U 09058B   25330.36749409  .00000010  00000+0  00000+0 0  9991
2 36033   0.0162 264.0879 0002197  10.6497 282.2827  1.00272080 58978
INTELSAT 14 (IS-14)     
1 36097U 09064A   25330.21599980 -.00000254  00000+0  00000+0 0  9990
2 36097   0.0093 320.0170 0002428 288.3464 209.7985  1.00268477 58573
EUTELSAT 36B            
1 36101U 09065A   25330.23497993  .00000131  00000+0  00000+0 0  9993
2 36101   0.0431   8.9560 0006007 236.7654 314.8006  1.00271210 58677
INTELSAT 15 (IS-15)     
1 36106U 09067A   25330.45589463 -.00000166  00000+0  00000+0 0  9997
2 36106   0.0259  59.7556 0002079 165.3687  89.8092  1.00270868 39195
WGS F3 (USA 211)        
1 36108U 09068A   25330.38318083 -.00000099  00000+0  00000+0 0  9995
2 36108   0.2549  86.8969 0000483  92.5374 102.3213  1.00270582 44567
DIRECTV 12              
1 36131U 09075A   25330.48995484 -.00000085  00000+0  00000+0 0  9991
2 36131   0.0355 118.9562 0000070  37.9430 342.4683  1.00272209 44522
BEIDOU-2 G1             
1 36287U 10001A   25330.53814181 -.00000260  00000+0  00000+0 0  9999
2 36287   3.8173  60.7969 0003340 248.6056  90.5020  1.00275027 58135
SDO                     
1 36395U 10005A   25330.32614044 -.00000049  00000+0  00000+0 0  9991
2 36395  34.2253  89.4396 0001477 145.3126 206.3848  1.00270776 58023
INTELSAT 16 (IS-16)     
1 36397U 10006A   25330.46780872 -.00000225  00000+0  00000+0 0  9998
2 36397   0.0100 312.4133 0002074 294.1542 271.3086  1.00270393 57620
EWS-G2 (GOES 15)        
1 36411U 10008A   25330.45121461  .00000056  00000+0  00000+0 0  9990
2 36411   0.7702  86.0210 0005565 166.1053  37.5586  1.00267781 57607
ECHOSTAR 14             
1 36499U 10010A   25330.38169883  .00000019  00000+0  00000+0 0  9990
2 36499   0.0175 294.8930 0002067 313.6590 195.5495  1.00270104 44510
SES-1                   
1 36516U 10016A   25330.41897440 -.00000096  00000+0  00000+0 0  9993
2 36516   0.0128 347.7789 0002643 263.5262 224.1555  1.00271872 57004
ASTRA 3B                
1 36581U 10021A   25330.30093367  .00000157  00000+0  00000+0 0  9992
2 36581   0.9433  86.2146 0002149 152.9127 318.1958  1.00272903 56835
COMSATBW-2              
1 36582U 10021B   25330.29894032  .00000109  00000+0  00000+0 0  9996
2 36582   0.0388  61.6573 0003603 203.1031 281.6300  1.00278237 56927
BEIDOU-2 G3             
1 36590U 10024A   25330.54283019 -.00000115  00000+0  00000+0 0  9991
2 36590   4.0332  62.1963 0004015 312.6758 325.8365  1.00268972 56734
BADR-5                  
1 36592U 10025A   25330.08516824  .00000164  00000+0  00000+0 0  9999
2 36592   0.0673 111.2889 0003936 100.0153 270.6733  1.00274421 51188
COMS 1                  
1 36744U 10032A   25330.49983514 -.00000324  00000+0  00000+0 0  9994
2 36744   4.2994  78.1785 0000709 162.2191 133.4103  1.00271352 49052
ARABSAT-5A              
1 36745U 10032B   25330.30232035  .00000173  00000+0  00000+0 0  9991
2 36745   0.0715  47.1951 0003563 197.1184 320.5019  1.00270518 56617
ECHOSTAR 15             
1 36792U 10034A   25330.41542103  .00000018  00000+0  00000+0 0  9995
2 36792   0.0073 302.0230 0002120 266.3270 248.0137  1.00272525 56291
BEIDOU-2 IGSO-1         
1 36828U 10036A   25319.51552984 -.00000044  00000+0  00000+0 0  9993
2 36828  54.2794 164.8948 0050831 215.9297 326.8706  1.00284412 55950
NILESAT 201             
1 36830U 10037A   25330.36628074 -.00000038  00000+0  00000+0 0  9990
2 36830   0.0398 127.9658 0004860  99.7279 322.7419  1.00271448 56333
RASCOM-QAF 1R           
1 36831U 10037B   25330.36818742  .00000038  00000+0  00000+0 0  9993
2 36831   0.0109  77.9297 0006978 173.8215 309.2564  1.00271073 56271
AEHF-1 (USA 214)        
1 36868U 10039A   25329.95997398  .00000167  00000+0  00000+0 0  9996
2 36868   7.7175  70.6329 0004619 172.5458 197.4942  1.00271554 51624
XM-5                    
1 37185U 10053A   25330.51086443 -.00000004  00000+0  00000+0 0  9990
2 37185   0.0617 272.3935 0001440 225.8047 356.2285  1.00269435 55458
BSAT-3B                 
1 37207U 10056B   25330.46074800 -.00000331  00000+0  00000+0 0  9999
2 37207   0.0384 233.5317 0004596   8.6828  99.1584  1.00269969 50065
BEIDOU-2 G4             
1 37210U 10057A   25330.54490286 -.00000092  00000+0  00000+0 0  9997
2 37210   3.1414  69.9822 0010448 186.1647 165.8207  1.00272378 55250
SKYTERRA 1              
1 37218U 10061A   25329.84816932 -.00000099  00000+0  00000+0 0  9998
2 37218   4.6905  50.8845 0005369 192.6375  25.5758  1.00272109 55153
HYLAS 1                 
1 37237U 10065A   25330.35198065 -.00000215  00000+0  00000+0 0  9991
2 37237   5.1270  75.5179 0002379 207.0714 190.6561  1.00269680  4852
INTELSAT 17 (IS-17)     
1 37238U 10065B   25330.45208126  .00000017  00000+0  00000+0 0  9992
2 37238   0.0183 274.2802 0002575 339.5097  40.6042  1.00272373 51217
BEIDOU-2 IGSO-2         
1 37256U 10068A   25330.52837703 -.00000203  00000+0  00000+0 0  9990
2 37256  47.9188 274.3518 0049524 216.7352 231.6226  1.00291753 54764
EUTELSAT KA-SAT 9A      
1 37258U 10069A   25330.36940076  .00000081  00000+0  00000+0 0  9996
2 37258   0.0551 324.9818 0001740 226.1637  16.4235  1.00271569 41975
HISPASAT 30W-5          
1 37264U 10070A   25330.43301448 -.00000197  00000+0  00000+0 0  9996
2 37264   0.0376 123.5716 0003166  98.1027 329.8488  1.00270660 51154
KOREASAT 6              
1 37265U 10070B   25330.54490286 -.00000093  00000+0  00000+0 0  9993
2 37265   0.0164 305.2773 0002654 321.6934 154.8097  1.00269388 54738
BEIDOU-2 IGSO-3         
1 37384U 11013A   25329.68284662 -.00000178  00000+0  00000+0 0  9999
2 37384  62.1197  42.0821 0035957 185.7087 190.7059  1.00274930 53628
INTELSAT 28 (IS-28)     
1 37392U 11016A   25330.36642144 -.00000205  00000+0  00000+0 0  9992
2 37392   1.2790  85.2568 0003747 164.6438 275.8767  1.00272240 51255
YAHSAT 1A               
1 37393U 11016B   25330.44939458  .00000000  00000+0  00000+0 0  9991
2 37393   0.0141 305.3599 0003292 321.8366  12.7011  1.00268591 40370
SBIRS GEO-1 (USA 230)   
1 37481U 11019A   25330.23523993  .00000119  00000+0  00000+0 0  9993
2 37481   4.0911  52.9204 0002256 196.3774 312.6166  1.00272016 53365
TELSTAR 14R             
1 37602U 11021A   25330.42651443 -.00000261  00000+0  00000+0 0  9993
2 37602   0.0542  97.8557 0001637 204.7094 213.6037  1.00269625 53804
GSAT-8                  
1 37605U 11022A   25330.44991458  .00000104  00000+0  00000+0 0  9997
2 37605   1.6043  84.3798 0008534 174.8763  23.4305  1.00271056 51186
ST-2                    
1 37606U 11022B   25330.45641463 -.00000192  00000+0  00000+0 0  9995
2 37606   0.0161 277.6700 0002227  10.0573  30.2401  1.00267819 53248
ZHONGXING-10            
1 37677U 11026A   25330.52557507 -.00000084  00000+0  00000+0 0  9990
2 37677   0.5196  86.7061 0005954 173.6128  71.2823  1.00270756 52965
SES-3                   
1 37748U 11035A   25330.48447661 -.00000083  00000+0  00000+0 0  9992
2 37748   0.7998  85.2472 0002753 183.0187 228.8185  1.00273145 52562
KAZSAT-2                
1 37749U 11035B   25329.10669850 -.00000179  00000+0  00000+0 0  9992
2 37749   0.0189 290.2874 0002092  30.5876 228.3775  1.00276172 51358
BEIDOU-2 IGSO-4         
1 37763U 11038A   25330.52860841  .00000070  00000+0  00000+0 0  9991
2 37763  54.5799 167.4923 0148515 230.1939 312.1414  1.00285430 52613
ASTRA 1N                
1 37775U 11041A   25330.30006700  .00000139  00000+0  00000+0 0  9996
2 37775   0.0715  33.8745 0001162 233.1236 285.7530  1.00268863 42497
BSAT-3C (JCSAT-110R)    
1 37776U 11041B   25330.31809377 -.00000331  00000+0  00000+0 0  9994
2 37776   0.0284  49.1956 0000053 322.8197 277.9862  1.00270744 48446
PAKSAT-1R               
1 37779U 11042A   25330.44653456  .00000173  00000+0  00000+0 0  9990
2 37779   0.1615  86.2017 0000288 352.1885 185.9793  1.00268593 52443
SES-2                   
1 37809U 11049A   25330.47891874 -.00000177  00000+0  00000+0 0  9997
2 37809   0.0558  76.3685 0002613 166.5632 268.1554  1.00272745 51930
ARABSAT-5C              
1 37810U 11049B   25330.30024034  .00000142  00000+0  00000+0 0  9998
2 37810   0.0500 353.8604 0004437 238.5455 321.1744  1.00269649 52001
EUTELSAT 7 WEST A       
1 37816U 11051A   25330.36619407 -.00000041  00000+0  00000+0 0  9996
2 37816   0.0631 348.5973 0006124 229.3872 332.1039  1.00269064 51849
QUETZSAT 1              
1 37826U 11054A   25330.46225403 -.00000223  00000+0  00000+0 0  9992
2 37826   0.0132 329.8143 0002454 278.1760 267.0725  1.00274499 47848
